CSS (TIANHE)            
1 48274U 21035A   24052.52731444  .00033992  00000+0  37825-3 0  9992
2 48274  41.4688  75.9257 0008955 354.6963   5.3780 15.62109430160838
